{
  "type": "FeatureCollection",
  "features": [
    {
      "type": "Feature",
      "properties": {
        "norad_id": 48859,
        "name": "GPS BIII-5  (PRN 11)",
        "group": "gps-ops",
        "lat": 48.82409597835202,
        "lon": 32.08980654674062,
        "alt_km": 20241.240751317757,
        "timestamp": "2025-12-21T14:40:48.175728+00:00",
        "meta_object_name": "GPS BIII-5  (PRN 11)",
        "meta_object_id": "2021-054A",
        "meta_epoch": "2025-12-08T04:14:32.423424",
        "meta_mean_motion": 2.00553627,
        "meta_eccentricity": 0.0024678,
        "meta_inclination": 55.2581,
        "meta_ra_of_asc_node": 340.1367,
        "meta_arg_of_pericenter": 233.3993,
        "meta_mean_anomaly": 212.8594,
        "meta_ephemeris_type": 0,
        "meta_classification_type": "U",
        "meta_norad_cat_id": 48859,
        "meta_element_set_no": 999,
        "meta_rev_at_epoch": 3292,
        "meta_bstar": 0,
        "meta_mean_motion_dot": -8.6e-07,
        "meta_mean_motion_ddot": 0,
        "tle_line1": "1 48859U 21054A   25342.17676416 -.00000086  00000+0  00000+0 0  9993",
        "tle_line2": "2 48859  55.2581 340.1367 0024678 233.3993 212.8594  2.00553627 32922"
      },
      "geometry": {
        "type": "Point",
        "coordinates": [
          32.08980654674062,
          48.82409597835202
        ]
      }
    },
    {
      "type": "Feature",
      "properties": {
        "norad_id": 55268,
        "name": "GPS BIII-6  (PRN 28)",
        "group": "gps-ops",
        "lat": 50.826166754726735,
        "lon": -83.46419826916049,
        "alt_km": 20180.76646812157,
        "timestamp": "2025-12-21T14:40:48.175750+00:00",
        "meta_object_name": "GPS BIII-6  (PRN 28)",
        "meta_object_id": "2023-009A",
        "meta_epoch": "2025-12-20T11:03:51.058368",
        "meta_mean_motion": 2.00555101,
        "meta_eccentricity": 0.00036997,
        "meta_inclination": 55.1064,
        "meta_ra_of_asc_node": 155.5422,
        "meta_arg_of_pericenter": 356.2335,
        "meta_mean_anomaly": 1.8873,
        "meta_ephemeris_type": 0,
        "meta_classification_type": "U",
        "meta_norad_cat_id": 55268,
        "meta_element_set_no": 999,
        "meta_rev_at_epoch": 2165,
        "meta_bstar": 0,
        "meta_mean_motion_dot": 6.5e-07,
        "meta_mean_motion_ddot": 0,
        "tle_line1": "1 55268U 23009A   25354.46100762  .00000065  00000+0  00000+0 0  9994",
        "tle_line2": "2 55268  55.1064 155.5422 0003699 356.2335   1.8873  2.00555101 21657"
      },
      "geometry": {
        "type": "Point",
        "coordinates": [
          -83.46419826916049,
          50.826166754726735
        ]
      }
    },
    {
      "type": "Feature",
      "properties": {
        "norad_id": 62339,
        "name": "GPS BIII-7  (PRN 01)",
        "group": "gps-ops",
        "lat": -5.485161907753021,
        "lon": 165.23762754097794,
        "alt_km": 20213.767531922727,
        "timestamp": "2025-12-21T14:40:48.175762+00:00",
        "meta_object_name": "GPS BIII-7  (PRN 01)",
        "meta_object_id": "2024-242A",
        "meta_epoch": "2025-12-18T08:46:28.895808",
        "meta_mean_motion": 2.00568182,
        "meta_eccentricity": 0.0012509,
        "meta_inclination": 54.922,
        "meta_ra_of_asc_node": 341.5124,
        "meta_arg_of_pericenter": 345.6877,
        "meta_mean_anomaly": 17.1618,
        "meta_ephemeris_type": 0,
        "meta_classification_type": "U",
        "meta_norad_cat_id": 62339,
        "meta_element_set_no": 999,
        "meta_rev_at_epoch": 763,
        "meta_bstar": 0,
        "meta_mean_motion_dot": -8.5e-07,
        "meta_mean_motion_ddot": 0,
        "tle_line1": "1 62339U 24242A   25352.36561222 -.00000085  00000+0  00000+0 0  9993",
        "tle_line2": "2 62339  54.9220 341.5124 0012509 345.6877  17.1618  2.00568182  7636"
      },
      "geometry": {
        "type": "Point",
        "coordinates": [
          165.23762754097794,
          -5.485161907753021
        ]
      }
    },
    {
      "type": "Feature",
      "properties": {
        "norad_id": 64202,
        "name": "GPS BIII-8  (PRN 21)",
        "group": "gps-ops",
        "lat": 12.972368247341748,
        "lon": 47.54753979953125,
        "alt_km": 20175.03901027337,
        "timestamp": "2025-12-21T14:40:48.175774+00:00",
        "meta_object_name": "GPS BIII-8  (PRN 21)",
        "meta_object_id": "2025-116A",
        "meta_epoch": "2025-12-21T05:27:12.746304",
        "meta_mean_motion": 2.00557871,
        "meta_eccentricity": 0.00058012,
        "meta_inclination": 55.1115,
        "meta_ra_of_asc_node": 38.2986,
        "meta_arg_of_pericenter": 309.9231,
        "meta_mean_anomaly": 148.3902,
        "meta_ephemeris_type": 0,
        "meta_classification_type": "U",
        "meta_norad_cat_id": 64202,
        "meta_element_set_no": 999,
        "meta_rev_at_epoch": 430,
        "meta_bstar": 0,
        "meta_mean_motion_dot": -5.6e-07,
        "meta_mean_motion_ddot": 0,
        "tle_line1": "1 64202U 25116A   25355.22723086 -.00000056  00000+0  00000+0 0  9999",
        "tle_line2": "2 64202  55.1115  38.2986 0005801 309.9231 148.3902  2.00557871  4300"
      },
      "geometry": {
        "type": "Point",
        "coordinates": [
          47.54753979953125,
          12.972368247341748
        ]
      }
    }
  ]
}